{"type":"FeatureCollection","features":[{"type":"Feature","properties":{"id":"los_palmitos","nombre":"Los Palmitos (Sucre)","municipio":"Los Palmitos","departamento":"Sucre"},"geometry":{"type":"MultiPolygon","coordinates":[[[[-75.2989,9.4726],[-75.2982,9.4814],[-75.3011,9.4898],[-75.3007,9.4929],[-75.2995,9.4957],[-75.2903,9.4992],[-75.2815,9.4948],[-75.2714,9.4928],[-75.2699,9.4906],[-75.2644,9.4917],[-75.2611,9.4896],[-75.2598,9.4921],[-75.2562,9.4913],[-75.2551,9.4935],[-75.2488,9.4884],[-75.2451,9.4895],[-75.2412,9.4883],[-75.2375,9.4901],[-75.2272,9.4883],[-75.2197,9.4831],[-75.2135,9.4702],[-75.2095,9.4669],[-75.2039,9.4655],[-75.1996,9.466],[-75.1958,9.4702],[-75.19,9.4734],[-75.1808,9.4761],[-75.1755,9.4741],[-75.1725,9.4773],[-75.1654,9.4798],[-75.1458,9.4669],[-75.1323,9.4653],[-75.147,9.4585],[-75.1483,9.4569],[-75.1472,9.4557],[-75.1407,9.4528],[-75.1331,9.4522],[-75.131,9.4487],[-75.1215,9.4443],[-75.0999,9.4403],[-75.109,9.4371],[-75.1125,9.4324],[-75.11,9.4283],[-75.1089,9.4208],[-75.1123,9.4197],[-75.1129,9.4169],[-75.1154,9.4154],[-75.1156,9.4109],[-75.1118,9.399],[-75.1163,9.3994],[-75.1159,9.4015],[-75.1212,9.4044],[-75.1243,9.4009],[-75.1298,9.4002],[-75.1353,9.4026],[-75.1372,9.3985],[-75.1416,9.4006],[-75.1419,9.3995],[-75.1474,9.3999],[-75.1499,9.4069],[-75.1564,9.4048],[-75.1621,9.3963],[-75.173,9.3923],[-75.1808,9.3802],[-75.1871,9.3788],[-75.1932,9.3723],[-75.2024,9.3667],[-75.2039,9.3633],[-75.2074,9.3625],[-75.209,9.3642],[-75.2106,9.3598],[-75.219,9.3569],[-75.2289,9.3504],[-75.2319,9.3439],[-75.2362,9.3398],[-75.2435,9.3441],[-75.2472,9.3429],[-75.2574,9.3452],[-75.2617,9.3444],[-75.2731,9.3488],[-75.2755,9.3511],[-75.2828,9.351],[-75.2857,9.3525],[-75.2793,9.356],[-75.2787,9.3535],[-75.2771,9.356],[-75.275,9.3549],[-75.2763,9.3574],[-75.2726,9.3569],[-75.2713,9.3602],[-75.2646,9.3559],[-75.254,9.3586],[-75.2573,9.3654],[-75.273,9.3728],[-75.2699,9.3751],[-75.2685,9.374],[-75.2679,9.3724],[-75.2676,9.3725],[-75.2687,9.3767],[-75.2644,9.3769],[-75.2646,9.3795],[-75.2619,9.3802],[-75.2641,9.3859],[-75.2679,9.3833],[-75.2683,9.39],[-75.2592,9.4112],[-75.2607,9.4186],[-75.267,9.4234],[-75.2714,9.4236],[-75.274,9.4262],[-75.2742,9.43],[-75.276,9.4298],[-75.2752,9.4314],[-75.2788,9.4362],[-75.2797,9.4418],[-75.2821,9.4428],[-75.2828,9.4452],[-75.2853,9.4439],[-75.287,9.4456],[-75.2874,9.4439],[-75.2896,9.444],[-75.2921,9.4475],[-75.293,9.4523],[-75.2996,9.4531],[-75.2987,9.4625],[-75.3006,9.4664],[-75.2989,9.4726]]]]}},{"type":"Feature","properties":{"id":"san_jose_de_toluviejo","nombre":"San José de Toluviejo (Sucre)","municipio":"San José de Toluviejo","departamento":"Sucre"},"geometry":{"type":"MultiPolygon","coordinates":[[[[-75.4014,9.6282],[-75.3995,9.6188],[-75.4032,9.6125],[-75.4038,9.6072],[-75.407,9.6035],[-75.4107,9.6022],[-75.4107,9.5988],[-75.4146,9.5982],[-75.4141,9.5966],[-75.4068,9.5933],[-75.4069,9.5916],[-75.4002,9.5912],[-75.4028,9.5893],[-75.3961,9.5878],[-75.3967,9.5852],[-75.3898,9.5871],[-75.3908,9.581],[-75.3896,9.5778],[-75.3915,9.5752],[-75.3879,9.5724],[-75.3882,9.5676],[-75.3809,9.5632],[-75.3816,9.5555],[-75.3744,9.5539],[-75.3774,9.5451],[-75.3828,9.5416],[-75.3864,9.5356],[-75.388,9.5261],[-75.4008,9.5149],[-75.3987,9.5107],[-75.4007,9.5049],[-75.4062,9.5015],[-75.4036,9.4969],[-75.4034,9.493],[-75.3994,9.4906],[-75.3982,9.4843],[-75.3922,9.4833],[-75.3893,9.4752],[-75.3944,9.4658],[-75.3928,9.4581],[-75.3949,9.457],[-75.3935,9.447],[-75.3763,9.4385],[-75.3684,9.4442],[-75.3623,9.4423],[-75.3644,9.4421],[-75.365,9.4404],[-75.3686,9.4416],[-75.3734,9.4396],[-75.3754,9.438],[-75.3723,9.4368],[-75.3764,9.4347],[-75.3764,9.4317],[-75.3767,9.4332],[-75.3802,9.4334],[-75.3817,9.431],[-75.3834,9.4316],[-75.393,9.4239],[-75.392,9.421],[-75.3946,9.4207],[-75.3928,9.4175],[-75.3954,9.416],[-75.3931,9.4151],[-75.3923,9.4112],[-75.3946,9.4105],[-75.3984,9.3938],[-75.4002,9.393],[-75.4033,9.3968],[-75.4055,9.3926],[-75.4046,9.3884],[-75.4065,9.3857],[-75.4145,9.3861],[-75.418,9.3837],[-75.4258,9.3839],[-75.4231,9.3768],[-75.429,9.3767],[-75.4306,9.3734],[-75.4346,9.3757],[-75.4333,9.3812],[-75.4391,9.383],[-75.4441,9.3808],[-75.4541,9.3818],[-75.4631,9.3799],[-75.4669,9.3941],[-75.4712,9.3981],[-75.4756,9.393],[-75.4811,9.3912],[-75.4838,9.3935],[-75.4876,9.3914],[-75.4892,9.3875],[-75.4923,9.3853],[-75.5018,9.3861],[-75.503,9.3888],[-75.5093,9.3915],[-75.5105,9.3955],[-75.4993,9.4047],[-75.5022,9.4088],[-75.5089,9.4131],[-75.5151,9.423],[-75.5151,9.4342],[-75.52,9.4456],[-75.5167,9.4515],[-75.5156,9.4509],[-75.5117,9.4601],[-75.5175,9.4606],[-75.5176,9.4636],[-75.5058,9.4778],[-75.5075,9.4783],[-75.5065,9.4809],[-75.5107,9.4852],[-75.5052,9.4934],[-75.4985,9.4908],[-75.4943,9.5046],[-75.492,9.5045],[-75.4887,9.5126],[-75.4798,9.5206],[-75.4779,9.5243],[-75.4735,9.5363],[-75.4852,9.5508],[-75.4786,9.5536],[-75.4733,9.5616],[-75.4474,9.5635],[-75.444,9.5668],[-75.4475,9.5691],[-75.4529,9.5814],[-75.4632,9.5848],[-75.4614,9.587],[-75.4632,9.5882],[-75.464,9.5924],[-75.4668,9.5944],[-75.4669,9.6043],[-75.4629,9.6066],[-75.4527,9.6061],[-75.4521,9.6169],[-75.4567,9.6197],[-75.4603,9.6153],[-75.4695,9.6205],[-75.4735,9.635],[-75.4697,9.6332],[-75.4672,9.6339],[-75.4681,9.6349],[-75.4629,9.6347],[-75.4617,9.638],[-75.4581,9.6377],[-75.4283,9.6187],[-75.4256,9.6258],[-75.4227,9.6262],[-75.4227,9.6275],[-75.415,9.628],[-75.4143,9.6264],[-75.4093,9.631],[-75.4014,9.6282]]]]}},{"type":"Feature","properties":{"id":"icononzo","nombre":"Icononzo (Tolima)","municipio":"Icononzo","departamento":"Tolima"},"geometry":{"type":"MultiPolygon","coordinates":[[[[-74.5404,4.2519],[-74.5389,4.2517],[-74.5358,4.2463],[-74.5274,4.2444],[-74.5255,4.2417],[-74.5193,4.2401],[-74.5128,4.2223],[-74.5138,4.2204],[-74.5117,4.2186],[-74.5135,4.2156],[-74.5079,4.1981],[-74.5003,4.194],[-74.5006,4.1868],[-74.4916,4.1821],[-74.4875,4.1821],[-74.4831,4.1768],[-74.4844,4.1564],[-74.4831,4.1516],[-74.4808,4.1508],[-74.4837,4.1472],[-74.4791,4.1354],[-74.4755,4.1339],[-74.4748,4.1282],[-74.4765,4.1113],[-74.4791,4.1086],[-74.4828,4.1079],[-74.4864,4.1016],[-74.4859,4.0963],[-74.5081,4.0797],[-74.508,4.0745],[-74.5129,4.0725],[-74.5165,4.0677],[-74.5187,4.0625],[-74.5177,4.0577],[-74.5257,4.0523],[-74.525,4.0493],[-74.5294,4.0456],[-74.5275,4.0412],[-74.5313,4.0334],[-74.5286,4.0299],[-74.527,4.0236],[-74.5242,4.0217],[-74.5266,4.008],[-74.5334,3.994],[-74.5313,3.9759],[-74.5379,3.9755],[-74.5418,3.9761],[-74.5461,3.9873],[-74.5435,3.9906],[-74.544,4.0064],[-74.5415,4.0213],[-74.5467,4.0286],[-74.5507,4.0386],[-74.5577,4.0459],[-74.5586,4.0502],[-74.564,4.0535],[-74.5602,4.0598],[-74.561,4.0681],[-74.5719,4.0767],[-74.5763,4.0828],[-74.586,4.0817],[-74.5887,4.0844],[-74.5993,4.0849],[-74.6086,4.0949],[-74.6221,4.0994],[-74.6258,4.099],[-74.6239,4.1013],[-74.621,4.1011],[-74.6186,4.1031],[-74.6194,4.1126],[-74.6156,4.1161],[-74.6121,4.1245],[-74.6033,4.1317],[-74.5972,4.1337],[-74.5778,4.1531],[-74.568,4.1669],[-74.5603,4.1824],[-74.559,4.2002],[-74.561,4.2069],[-74.5612,4.225],[-74.5665,4.2417],[-74.5661,4.248],[-74.5617,4.2607],[-74.5557,4.2672],[-74.5497,4.2627],[-74.549,4.2596],[-74.5445,4.2593],[-74.5432,4.2526],[-74.5404,4.2519]]]]}},{"type":"Feature","properties":{"id":"planadas","nombre":"Planadas (Tolima)","municipio":"Planadas","departamento":"Tolima"},"geometry":{"type":"MultiPolygon","coordinates":[[[[-76.104,3.0952],[-76.1078,3.1007],[-76.1075,3.1078],[-76.0917,3.1112],[-76.0891,3.1149],[-76.0843,3.1129],[-76.0813,3.1172],[-76.0762,3.1185],[-76.073,3.1236],[-76.0734,3.1279],[-76.0762,3.1324],[-76.0718,3.14],[-76.0789,3.1497],[-76.0851,3.1522],[-76.0862,3.1551],[-76.078,3.165],[-76.0819,3.1718],[-76.0903,3.1747],[-76.0918,3.1767],[-76.0924,3.1805],[-76.0908,3.1853],[-76.0924,3.188],[-76.0898,3.1921],[-76.0916,3.1988],[-76.0849,3.1943],[-76.084,3.1909],[-76.0795,3.188],[-76.0785,3.1825],[-76.0759,3.1793],[-76.0575,3.1699],[-76.052,3.1703],[-76.039,3.175],[-76.0336,3.1751],[-76.0246,3.1691],[-76.0204,3.1699],[-76.0084,3.1761],[-75.9989,3.1788],[-75.997,3.1818],[-75.9815,3.1858],[-75.9756,3.1841],[-75.973,3.1851],[-75.9662,3.1834],[-75.9621,3.1843],[-75.9511,3.1806],[-75.9464,3.1843],[-75.9421,3.1838],[-75.9259,3.1922],[-75.9144,3.1941],[-75.9096,3.2021],[-75.9058,3.2042],[-75.905,3.2064],[-75.8989,3.2074],[-75.8879,3.22],[-75.8819,3.2185],[-75.8815,3.2224],[-75.8773,3.2221],[-75.8742,3.237],[-75.8727,3.237],[-75.8722,3.2336],[-75.867,3.2316],[-75.8643,3.2353],[-75.8615,3.2353],[-75.8598,3.2386],[-75.8548,3.2413],[-75.8505,3.2479],[-75.8408,3.2522],[-75.8289,3.2673],[-75.8217,3.2711],[-75.8205,3.2734],[-75.8174,3.2734],[-75.8176,3.2827],[-75.811,3.2881],[-75.803,3.2876],[-75.7995,3.2914],[-75.7975,3.2898],[-75.7947,3.2919],[-75.7902,3.3013],[-75.7858,3.3038],[-75.7861,3.3097],[-75.7808,3.3117],[-75.7787,3.3104],[-75.7744,3.3126],[-75.7713,3.3095],[-75.7698,3.3105],[-75.7654,3.3093],[-75.7606,3.3134],[-75.7597,3.3173],[-75.7579,3.3162],[-75.7559,3.3181],[-75.7501,3.3147],[-75.7487,3.3174],[-75.7451,3.317],[-75.7453,3.3182],[-75.7424,3.3182],[-75.741,3.3207],[-75.7347,3.3233],[-75.7228,3.3174],[-75.7151,3.3157],[-75.7094,3.3175],[-75.7021,3.3146],[-75.7023,3.3076],[-75.6976,3.2903],[-75.6979,3.2862],[-75.6951,3.2853],[-75.693,3.2811],[-75.689,3.2796],[-75.6786,3.2821],[-75.6755,3.2844],[-75.6739,3.282],[-75.6707,3.2829],[-75.6686,3.2789],[-75.6665,3.2787],[-75.6656,3.2803],[-75.6602,3.279],[-75.6522,3.2865],[-75.6497,3.2914],[-75.6294,3.2922],[-75.6261,3.2973],[-75.6242,3.2962],[-75.6115,3.299],[-75.6092,3.2953],[-75.6109,3.2882],[-75.609,3.2841],[-75.6112,3.2844],[-75.612,3.2819],[-75.6102,3.275],[-75.6125,3.2673],[-75.6076,3.2667],[-75.6055,3.2646],[-75.6028,3.2461],[-75.6055,3.2388],[-75.6031,3.2364],[-75.604,3.2296],[-75.6071,3.2211],[-75.5993,3.2141],[-75.594,3.2061],[-75.5934,3.202],[-75.5893,3.1977],[-75.5943,3.1904],[-75.595,3.1859],[-75.5981,3.1835],[-75.5957,3.1753],[-75.5981,3.1734],[-75.5958,3.1699],[-75.6014,3.1627],[-75.6008,3.1482],[-75.5987,3.1448],[-75.5981,3.1374],[-75.5998,3.1362],[-75.6,3.1321],[-75.5992,3.1275],[-75.595,3.1283],[-75.5923,3.1257],[-75.5897,3.1267],[-75.5876,3.1255],[-75.5845,3.1223],[-75.5853,3.1198],[-75.5887,3.1171],[-75.5985,3.1144],[-75.6148,3.095],[-75.636,3.077],[-75.669,3.0585],[-75.7025,3.0254],[-75.7302,3.0137],[-75.7954,2.9671],[-75.8024,2.9191],[-75.8081,2.8974],[-75.8125,2.8899],[-75.8261,2.8772],[-75.8288,2.8721],[-75.8359,2.8736],[-75.8474,2.8699],[-75.8515,2.872],[-75.8586,2.8713],[-75.8627,2.8755],[-75.87,2.8791],[-75.8766,2.8867],[-75.8815,2.8883],[-75.8838,2.8975],[-75.8929,2.8974],[-75.8971,2.8937],[-75.9015,2.8942],[-75.9025,2.8985],[-75.9073,2.9],[-75.9085,2.9089],[-75.9104,2.9111],[-75.9266,2.9127],[-75.928,2.9153],[-75.9273,2.92],[-75.9289,2.9213],[-75.9375,2.92],[-75.9436,2.9214],[-75.9488,2.9169],[-75.9522,2.9164],[-75.9586,2.9342],[-75.9643,2.9374],[-75.9649,2.944],[-75.9737,2.9463],[-75.9809,2.9547],[-75.9813,2.9633],[-75.9835,2.9661],[-75.9824,2.9722],[-75.9859,2.9802],[-75.9889,2.9827],[-75.9966,2.9803],[-76.0111,2.979],[-76.0248,2.9714],[-76.0347,2.9424],[-76.0309,2.9741],[-76.0262,2.9864],[-76.0195,2.9949],[-76.0212,2.999],[-76.0194,3.0044],[-76.0332,3.0089],[-76.0353,3.0137],[-76.0419,3.0156],[-76.0388,3.0245],[-76.0446,3.0318],[-76.0461,3.0423],[-76.0531,3.0414],[-76.0559,3.0435],[-76.0583,3.0422],[-76.0616,3.0457],[-76.0664,3.0453],[-76.0742,3.0496],[-76.07,3.0668],[-76.0738,3.0773],[-76.0773,3.0804],[-76.0816,3.0897],[-76.0861,3.0908],[-76.0921,3.0962],[-76.0978,3.0969],[-76.104,3.0952]]]]}},{"type":"Feature","properties":{"id":"fonseca","nombre":"Fonseca (La Guajira)","municipio":"Fonseca","departamento":"La Guajira"},"geometry":{"type":"MultiPolygon","coordinates":[[[[-72.6757,10.8189],[-72.7479,10.6528],[-72.825,10.7123],[-72.8324,10.7693],[-72.8985,10.7904],[-72.8728,10.8412],[-72.9119,10.949],[-72.9144,11.0321],[-72.9119,11.0345],[-72.7834,10.8771],[-72.721,10.8647],[-72.6757,10.8189]]]]}},{"type":"Feature","properties":{"id":"manaure","nombre":"Manaure (Cesar)","municipio":"Manaure","departamento":"Cesar"},"geometry":{"type":"MultiPolygon","coordinates":[[[[-72.9058,10.3528],[-73.0478,10.3541],[-73.1286,10.3987],[-73.0882,10.4247],[-72.9866,10.3999],[-72.9009,10.4359],[-72.9058,10.3528]]]]}},{"type":"Feature","properties":{"id":"el_paso","nombre":"El Paso (Cesar)","municipio":"El Paso","departamento":"Cesar"},"geometry":{"type":"MultiPolygon","coordinates":[[[[-73.6183,9.8186],[-73.6207,9.7579],[-73.6195,9.7232],[-73.6305,9.6414],[-73.4897,9.6736],[-73.4469,9.6315],[-73.4861,9.5819],[-73.5546,9.6092],[-73.6464,9.5683],[-73.6354,9.5236],[-73.786,9.5236],[-73.8031,9.6364],[-73.8105,9.6736],[-73.8398,9.7368],[-73.8386,9.7852],[-73.7358,9.8843],[-73.7419,9.8484],[-73.6183,9.8186]]]]}}],"name":"municipios_monitoreados","crs":{"type":"name","properties":{"name":"urn:ogc:def:crs:OGC:1.3/CRS84"}}}